{
    "links": {
        "self": "http://www.neowsapp.com/rest/v1/neo/3841743?api_key=iIulBulltgU6a56xZRHN4H3l9WmuAYTsLGpBGhQ2"
    },
    "id": "3841743",
    "neo_reference_id": "3841743",
    "name": "(2019 JE2)",
    "designation": "2019 JE2",
    "nasa_jpl_url": "http://ssd.jpl.nasa.gov/sbdb.cgi?sstr=3841743",
    "absolute_magnitude_h": 25.7,
    "estimated_diameter": {
        "kilometers": {
            "estimated_diameter_min": 0.0192555078,
            "estimated_diameter_max": 0.0430566244
        },
        "meters": {
            "estimated_diameter_min": 19.2555078188,
            "estimated_diameter_max": 43.0566244241
        },
        "miles": {
            "estimated_diameter_min": 0.0119648141,
            "estimated_diameter_max": 0.0267541378
        },
        "feet": {
            "estimated_diameter_min": 63.1742402722,
            "estimated_diameter_max": 141.2618956756
        }
    },
    "is_potentially_hazardous_asteroid": false,
    "close_approach_data": [
        {
            "close_approach_date": "2019-04-24",
            "close_approach_date_full": "2019-Apr-24 16:47",
            "epoch_date_close_approach": 1556124420000,
            "relative_velocity": {
                "kilometers_per_second": "11.1021917671",
                "kilometers_per_hour": "39967.8903616622",
                "miles_per_hour": "24834.4927638895"
            },
            "miss_distance": {
                "astronomical": "0.024731144",
                "lunar": "9.620415016",
                "kilometers": "3699726.46506328",
                "miles": "2298903.423822064"
            },
            "orbiting_body": "Earth"
        }
    ],
    "orbital_data": {
        "orbit_id": "1",
        "orbit_determination_date": "2019-05-05 16:12:06",
        "first_observation_date": "2019-05-02",
        "last_observation_date": "2019-05-05",
        "data_arc_in_days": 3,
        "observations_used": 17,
        "orbit_uncertainty": "8",
        "minimum_orbit_intersection": ".0217578",
        "jupiter_tisserand_invariant": "3.414",
        "epoch_osculation": "2458606.5",
        "eccentricity": ".580733504633583",
        "semi_major_axis": "2.208493725237525",
        "inclination": "4.09328199941474",
        "ascending_node_longitude": "228.9570013473121",
        "orbital_period": "1198.788812721803",
        "perihelion_distance": ".9259474242190601",
        "perihelion_argument": "303.5197028826004",
        "aphelion_distance": "3.491040026255991",
        "perihelion_time": "2458566.876152386083",
        "mean_anomaly": "11.89916438127491",
        "mean_motion": ".3003031027480428",
        "equinox": "J2000",
        "orbit_class": {
            "orbit_class_type": "APO",
            "orbit_class_description": "Near-Earth asteroid orbits which cross the Earth’s orbit similar to that of 1862 Apollo",
            "orbit_class_range": "a (semi-major axis) > 1.0 AU; q (perihelion) < 1.017 AU"
        }
    },
    "is_sentry_object": false
}